satname,norad_id,inclination_deg,eccentricity,mean_motion_rev_per_day,perigee_km,apogee_km,l1,l2
STARLINK-1234,45190,53.0411,0.0006076,15.71926713,349.300745663204,357.48089827245985,1 45190U 20012N   26142.47272856  .00056465  00000+0  42601-3 0  9991,2 45190  53.0411 321.6559 0006076 170.9781 189.1346 15.71926713347455
STARLINK-1269,45197,53.1563,0.0003019,15.33394906,463.62607099312754,467.7583750779968,1 45197U 20012V   26142.17829190  .00013106  00000+0  41110-3 0  9993,2 45197  53.1563  57.7055 0003019  73.9234 286.2100 15.33394906346174
STARLINK-1154,45198,53.0426,0.0001461,15.60773726,384.43272491695643,386.4090365297052,1 45198U 20012W   26142.75002315  .01568796  00000+0  16703-1 0  9999,2 45198  53.0426  13.4663 0001461 121.6625 312.2769 15.60773726  5905
STARLINK-1199,45201,53.1566,0.0002531,15.33384187,463.99193591162475,467.4562984091308,1 45201U 20012Z   26142.40970792  .00031137  00000+0  95905-3 0  9995,2 45201  53.1566  40.8886 0002531 126.0675 234.0562 15.33384187346459
STARLINK-1209,45206,53.0402,0.0009505,15.63570397,370.93231555585135,383.7745028237214,1 45206U 20012AE  26142.52719301  .00041038  00000+0  43672-3 0  9995,2 45206  53.0402 334.9996 0009505 165.7054 194.4230 15.63570397346421
STARLINK-1231,45212,53.0381,0.0003756,15.26642893,483.2784508078021,488.43468277517513,1 45212U 20012AL  26141.99198935  .00024903  00000+0  94718-3 0  9995,2 45212  53.0381  37.5172 0003756  51.8632 308.2703 15.26642893346403
STARLINK-1271,45217,53.157,0.000229,15.33535687,463.7062260926332,466.84050804075105,1 45217U 20012AR  26142.73499654  .00033760  00000+0  10336-2 0  9999,2 45217  53.1570  39.5122 0002290 116.5131 243.6106 15.33535687346501
STARLINK-1191,45222,53.1571,0.0004427,15.37252874,451.2123216809905,457.2617056326817,1 45222U 20012AW  26142.36579888  .00047460  00000+0  12840-2 0  9996,2 45222  53.1571  14.6971 0004427 129.7650 230.3744 15.37252874346824
STARLINK-1212,45223,53.0416,0.0003827,15.65291313,369.8176465091419,374.98450835360836,1 45223U 20012AX  26142.75055955  .00040918  00000+0  40759-3 0  9996,2 45223  53.0416 349.6668 0003827 101.2101 258.9343 15.65291313347199
STARLINK-1215,45225,53.1577,0.0002227,15.3363472,463.4547975493442,466.5027213085932,1 45225U 20012AZ  26142.34415874  .00044371  00000+0  13488-2 0  9998,2 45225  53.1577  15.6140 0002227 151.4516 208.6608 15.33634720346761
STARLINK-1221,45227,53.0644,0.0002108,15.44256096,432.1288574995806,435.0006709633808,1 45227U 20012BB  26142.67715660  .00011449  00000+0  25379-3 0  9995,2 45227  53.0644 278.3332 0002108 227.0645 133.0184 15.44256096348130
STARLINK-1222,45228,53.0544,9.28e-05,15.53923985,404.65277562475876,405.9117782425574,1 45228U 20012BC  26142.55751618  .00027815  00000+0  42962-3 0  9997,2 45228  53.0544 347.4375 0000928  40.4665 319.6413 15.53923985347091
STARLINK-1226,45229,53.1573,0.0003026,15.42030717,438.05351590458486,442.1799230556144,1 45229U 20012BD  26142.33601654  .00039064  00000+0  90638-3 0  9990,2 45229  53.1573  12.7148 0003026 143.6722 216.4489 15.42030717346745
STARLINK-1227,45230,53.1558,0.0003689,15.42168838,437.19450174045596,442.22470896588493,1 45230U 20012BE  26142.34708778  .00047672  00000+0  10976-2 0  9998,2 45230  53.1558  12.7864 0003689 142.3268 217.7997 15.42168838346868
STARLINK-1246,45235,53.1563,0.0003287,15.33554971,462.9665875757901,467.465407836482,1 45235U 20012BK  26142.77192578  .00035264  00000+0  10782-2 0  9994,2 45235  53.1563  54.5661 0003287 122.5897 237.5423 15.33554971346322
STARLINK-1270,45237,53.0415,0.0003335,15.59092621,388.02464925720415,392.5391846748207,1 45237U 20012BM  26142.58040741  .00099477  00000+0  12417-2 0  9992,2 45237  53.0415 351.2355 0003335 133.6364 226.4925 15.59092621347155
STARLINK-1279,45360,53.0362,0.0009149,15.72043322,346.8995658851218,359.2163063792568,1 45360U 20019A   26142.57826250  .00063539  00000+0  47543-3 0  9991,2 45360  53.0362  95.9247 0009149  56.3909 303.7980 15.72043322342244
STARLINK-1301,45361,53.0377,0.0006551,15.74314271,342.1778469755827,350.98857539627807,1 45361U 20019B   26142.57995745  .00066540  00000+0  45205-3 0  9996,2 45361  53.0377  98.8266 0006551  73.5779 286.5959 15.74314271342211
STARLINK-1262,45366,53.1569,0.0003608,15.32509523,465.8577070629908,470.7981161432035,1 45366U 20019G   26142.40605743  .00032392  00000+0  10247-2 0  9994,2 45366  53.1569 182.6173 0003608  28.3598 331.7599 15.32509523341049
STARLINK-1273,45367,53.0445,0.0006303,15.5475424,398.5930505657134,407.1411843561855,1 45367U 20019H   26142.56936308  .00077409  00000+0  11396-2 0  9990,2 45367  53.0445 160.4274 0006303   2.5024 357.6016 15.54754240341358
STARLINK-1277,45369,53.0446,0.0006806,15.61084407,379.92081275788223,389.12614620255044,1 45369U 20019K   26142.33564020  .00081609  00000+0  94659-3 0  9996,2 45369  53.0446 156.3850 0006806 353.7384   6.3542 15.61084407341398
STARLINK-1281,45370,53.1567,0.0004766,15.33332319,462.61659662176226,469.1403121528847,1 45370U 20019L   26141.51504267  .00024406  00000+0  75596-3 0  9995,2 45370  53.1567 186.5026 0004766  15.4521 344.6625 15.33332319340917
STARLINK-1300,45374,53.1584,0.0004483,15.3381688,461.3694188978643,467.5044706967692,1 45374U 20019Q   26142.37918318  .00027965  00000+0  85108-3 0  9993,2 45374  53.1584 182.4243 0004483  32.9295 327.1985 15.33816880341044
STARLINK-1302,45375,53.045,0.0005451,15.65447414,368.2728360890742,375.6317834545871,1 45375U 20019R   26142.43420292  .00035929  00000+0  35644-3 0  9999,2 45375  53.0450 152.4211 0005451  18.1640 341.9569 15.65447414341459
STARLINK-1304,45376,53.0433,0.0006318,15.60366738,382.32295615237126,390.87087392741614,1 45376U 20019S   26142.32164860  .00069790  00000+0  83431-3 0  9994,2 45376  53.0433 153.7204 0006318  17.2124 342.9102 15.60366738341422
STARLINK-1305,45377,53.0377,0.000165,15.6930821,359.76482763740296,361.9887021798231,1 45377U 20019T   26142.75002315 -.00004803  00000+0 -35403-4 0  9991,2 45377  53.0377 131.2037 0001650 125.8056 239.0609 15.69308210  5727
STARLINK-1319,45379,53.0391,0.0005109,15.74435961,342.8012165301643,349.6721815758565,1 45379U 20019V   26142.64682082  .00062543  00000+0  42333-3 0  9998,2 45379  53.0391 124.0739 0005109  38.8536 321.2849 15.74435961341872
STARLINK-1266,45383,53.0444,0.0005758,15.56498842,393.89759327874435,401.7007613805572,1 45383U 20019Z   26142.68360292  .00035066  00000+0  49047-3 0  9992,2 45383  53.0444 137.1926 0005758  10.4418 349.6711 15.56498842341682
STARLINK-1267,45384,53.0445,0.0007679,15.62710215,374.64274296236,385.0216320405252,1 45384U 20019AA  26142.14187581  .00083314  00000+0  90684-3 0  9994,2 45384  53.0445 131.0923 0007679  47.0905 313.0751 15.62710215341727
STARLINK-1272,45386,53.0399,0.0008766,15.67617182,359.81058918092367,371.63392322890195,1 45386U 20019AC  26142.33779110  .00044809  00000+0  40528-3 0  9990,2 45386  53.0399 109.4554 0008766  39.8464 320.3194 15.67617182342045
STARLINK-1274,45387,53.0206,0.000906,15.58614868,385.53152801974556,397.79840918685477,1 45387U 20019AD  26142.59538956  .00085441  00000+0  10871-2 0  9994,2 45387  53.0206 106.4239 0009060  65.7701 294.4256 15.58614868342105
STARLINK-1280,45388,53.0377,0.0005731,15.75069931,340.5794875843894,348.2848963922461,1 45388U 20019AE  26142.15705985  .00064944  00000+0  42732-3 0  9992,2 45388  53.0377 118.9713 0005731  49.9792 310.1729 15.75069931341884
STARLINK-1283,45389,53.0404,0.0004582,15.68850889,359.0979029205391,365.27473521013053,1 45389U 20019AF  26142.62412269  .00053649  00000+0  46059-3 0  9991,2 45389  53.0404 107.2885 0004582  66.3710 293.7787 15.68850889342101
STARLINK-1284,45390,53.0407,0.0005225,15.67872861,361.465788358636,368.5123551035949,1 45390U 20019AG  26142.69359860  .00045023  00000+0  40346-3 0  9997,2 45390  53.0407 130.6925 0005225 359.0564   1.0440 15.67872861341776
STARLINK-1297,45395,53.0414,0.0006978,15.66298209,364.79920185832634,374.2162148132793,1 45395U 20019AM  26142.75538240  .00042454  00000+0  40563-3 0  9996,2 45395  53.0414 129.2281 0006978   7.1031 353.0082 15.66298209340985
STARLINK-1307,45397,53.0526,0.0002692,15.55346465,399.3207024354806,402.9706682332644,1 45397U 20019AP  26142.69240142  .00026643  00000+0  39108-3 0  9997,2 45397  53.0526 134.0916 0002692  46.7914 313.3321 15.55346465341553
STARLINK-1255,45399,53.0364,0.0006376,15.63603856,372.9497973919906,381.5642758675003,1 45399U 20019AR  26142.18465152  .00093429  00000+0  98050-3 0  9990,2 45399  53.0364 105.5232 0006376  57.3650 302.7979 15.63603856341894
STARLINK-1260,45404,53.1544,0.0006111,15.36042408,453.6485507116813,462.0034646996992,1 45404U 20019AW  26142.69531316  .00034785  00000+0  98267-3 0  9999,2 45404  53.1544 144.0242 0006111  27.8507 332.2822 15.36042408341324
STARLINK-1263,45405,53.1569,0.0004543,15.33503442,462.26029281477076,468.4783026368841,1 45405U 20019AX  26142.57207273  .00036652  00000+0  11217-2 0  9993,2 45405  53.1569 145.5474 0004543  43.2145 316.9213 15.33503442341298
STARLINK-1265,45406,53.155,0.0005695,15.3637477,452.9475759119923,460.73261482361613,1 45406U 20019AY  26142.30146490  .00028415  00000+0  79692-3 0  9998,2 45406  53.1550 145.9030 0005695  18.8932 341.2282 15.36374770341269
STARLINK-1278,45408,53.0398,0.0007349,15.67162326,362.0700718567614,371.9841140405779,1 45408U 20019BA  26142.66369422  .00042615  00000+0  39318-3 0  9990,2 45408  53.0398 128.7238 0007349  27.8963 332.2445 15.67162326341527
STARLINK-1296,45412,53.1569,0.0006309,15.36615574,451.814264461731,460.43773751637855,1 45412U 20019BE  26142.40846487  .00039260  00000+0  10869-2 0  9999,2 45412  53.1569 145.1193 0006309  19.9535 340.1714 15.36615574341282
STARLINK-1309,45414,53.0607,0.0006879,15.6638783,364.6088001317512,373.89185561744125,1 45414U 20019BG  26142.67479826  .00041472  00000+0  39502-3 0  9993,2 45414  53.0607 122.4673 0006879   6.2300 353.8799 15.66387830341590
